COSMOS 1933             
1 18958U 88020A   25346.02736253  .00006073  00000+0  30495-3 0  9996
2 18958  82.5136 337.5828 0005680 128.8164 231.3577 15.17098272 36934
SL-3 R/B                
1 19046U 88032B   25346.26855185  .00007702  00000+0  37069-3 0  9994
2 19046  97.5083 324.9923 0026693 174.4709 185.6825 15.18735578 38831
SL-16 R/B               
1 19120U 88039B   25346.18327637 -.00000053  00000+0 -22550-5 0  9996
2 19120  71.0150 253.5750 0019710 117.2566 243.0570 14.19596840945963
COSMOS 1953             
1 19210U 88050A   25346.24564719  .00008633  00000+0  32443-3 0  9990
2 19210  82.5091 246.0773 0013764  72.9768 287.2978 15.26930116 24439
SL-8 R/B                
1 19257U 88053B   25346.28152590  .00000441  00000+0  15146-3 0  9998
2 19257  74.0478 273.5639 0019004 117.9109  43.8727 14.38858851964026
COSMOS 1975             
1 19573U 88093A   25346.05981520  .00010206  00000+0  38938-3 0  9995
2 19573  82.5203 205.5096 0012810 114.4970 245.7606 15.26454605  6039
SL-14 R/B               
1 19574U 88093B   25345.90976432  .00000862  00000+0  96678-4 0  9998
2 19574  82.5303 124.4460 0020032 332.2810 143.8051 14.85547750988009
SL-16 R/B               
1 19650U 88102B   25346.24653927 -.00000008  00000+0  20040-4 0  9996
2 19650  70.9997 335.4808 0012996 152.7736 207.4072 14.16136273914519
INTERCOSMOS 24          
1 20261U 89080A   25345.94979968  .00001479  00000+0  42878-3 0  9998
2 20261  82.6043 161.4665 1188841 136.3518 233.8091 12.59437986655751
SL-14 R/B               
1 20262U 89080C   25346.18429131  .00000618  00000+0  18092-3 0  9993
2 20262  82.5929 229.3774 1230660  24.8568 340.6974 12.50413228649217
DELTA 1 R/B             
1 20323U 89089B   25346.15689551  .00000557  00000+0  14653-3 0  9992
2 20323  97.0752 202.4869 0070172  40.1184 320.5165 14.50571586883045
ARIANE 40 R/B           
1 20443U 90005H   25346.18326970  .00000509  00000+0  17554-3 0  9991
2 20443  98.3243  44.3768 0011250 107.2835 252.9585 14.39798179880214
