CCSDS_OMM_VERS = 2.0
CREATION_DATE  = 
ORIGINATOR     = 

OBJECT_NAME    = COSMOS 1933
OBJECT_ID      = 1988-020A
CENTER_NAME    = EARTH
REF_FRAME      = TEME
TIME_SYSTEM    = UTC
MEAN_ELEMENT_THEORY = SGP/SGP4

EPOCH          = 2025-12-12T00:39:24.122592
MEAN_MOTION    = 15.17098272
ECCENTRICITY   = .000568
INCLINATION    = 82.5136
RA_OF_ASC_NODE = 337.5828
ARG_OF_PERICENTER = 128.8164
MEAN_ANOMALY   = 231.3577

EPHEMERIS_TYPE = 0
CLASSIFICATION_TYPE = U
NORAD_CAT_ID   = 18958
ELEMENT_SET_NO = 999
REV_AT_EPOCH   = 3693
BSTAR          = .30495E-3
MEAN_MOTION_DOT = .6073E-4
MEAN_MOTION_DDOT = 0

CCSDS_OMM_VERS = 2.0
CREATION_DATE  = 
ORIGINATOR     = 

OBJECT_NAME    = SL-3 R/B
OBJECT_ID      = 1988-032B
CENTER_NAME    = EARTH
REF_FRAME      = TEME
TIME_SYSTEM    = UTC
MEAN_ELEMENT_THEORY = SGP/SGP4

EPOCH          = 2025-12-12T06:26:42.879840
MEAN_MOTION    = 15.18735578
ECCENTRICITY   = .00266938
INCLINATION    = 97.5083
RA_OF_ASC_NODE = 324.9923
ARG_OF_PERICENTER = 174.4709
MEAN_ANOMALY   = 185.6825

EPHEMERIS_TYPE = 0
CLASSIFICATION_TYPE = U
NORAD_CAT_ID   = 19046
ELEMENT_SET_NO = 999
REV_AT_EPOCH   = 3883
BSTAR          = .37068959E-3
MEAN_MOTION_DOT = .7702E-4
MEAN_MOTION_DDOT = 0

CCSDS_OMM_VERS = 2.0
CREATION_DATE  = 
ORIGINATOR     = 

OBJECT_NAME    = SL-16 R/B
OBJECT_ID      = 1988-039B
CENTER_NAME    = EARTH
REF_FRAME      = TEME
TIME_SYSTEM    = UTC
MEAN_ELEMENT_THEORY = SGP/SGP4

EPOCH          = 2025-12-12T04:23:55.078368
MEAN_MOTION    = 14.19596840
ECCENTRICITY   = .00197104
INCLINATION    = 71.0150
RA_OF_ASC_NODE = 253.5750
ARG_OF_PERICENTER = 117.2566
MEAN_ANOMALY   = 243.0570

EPHEMERIS_TYPE = 0
CLASSIFICATION_TYPE = U
NORAD_CAT_ID   = 19120
ELEMENT_SET_NO = 999
REV_AT_EPOCH   = 94596
BSTAR          = -.2255027E-5
MEAN_MOTION_DOT = -.53E-6
MEAN_MOTION_DDOT = 0

CCSDS_OMM_VERS = 2.0
CREATION_DATE  = 
ORIGINATOR     = 

OBJECT_NAME    = COSMOS 1953
OBJECT_ID      = 1988-050A
CENTER_NAME    = EARTH
REF_FRAME      = TEME
TIME_SYSTEM    = UTC
MEAN_ELEMENT_THEORY = SGP/SGP4

EPOCH          = 2025-12-12T05:53:43.917216
MEAN_MOTION    = 15.26930116
ECCENTRICITY   = .00137641
INCLINATION    = 82.5091
RA_OF_ASC_NODE = 246.0773
ARG_OF_PERICENTER = 72.9768
MEAN_ANOMALY   = 287.2978

EPHEMERIS_TYPE = 0
CLASSIFICATION_TYPE = U
NORAD_CAT_ID   = 19210
ELEMENT_SET_NO = 999
REV_AT_EPOCH   = 2443
BSTAR          = .32442806E-3
MEAN_MOTION_DOT = .8633E-4
MEAN_MOTION_DDOT = 0

CCSDS_OMM_VERS = 2.0
CREATION_DATE  = 
ORIGINATOR     = 

OBJECT_NAME    = SL-8 R/B
OBJECT_ID      = 1988-053B
CENTER_NAME    = EARTH
REF_FRAME      = TEME
TIME_SYSTEM    = UTC
MEAN_ELEMENT_THEORY = SGP/SGP4

EPOCH          = 2025-12-12T06:45:23.837760
MEAN_MOTION    = 14.38858851
ECCENTRICITY   = .00190047
INCLINATION    = 74.0478
RA_OF_ASC_NODE = 273.5639
ARG_OF_PERICENTER = 117.9109
MEAN_ANOMALY   = 43.8727

EPHEMERIS_TYPE = 0
CLASSIFICATION_TYPE = U
NORAD_CAT_ID   = 19257
ELEMENT_SET_NO = 999
REV_AT_EPOCH   = 96402
BSTAR          = .15146036E-3
MEAN_MOTION_DOT = .441E-5
MEAN_MOTION_DDOT = 0

CCSDS_OMM_VERS = 2.0
CREATION_DATE  = 
ORIGINATOR     = 

OBJECT_NAME    = COSMOS 1975
OBJECT_ID      = 1988-093A
CENTER_NAME    = EARTH
REF_FRAME      = TEME
TIME_SYSTEM    = UTC
MEAN_ELEMENT_THEORY = SGP/SGP4

EPOCH          = 2025-12-12T01:26:08.033280
MEAN_MOTION    = 15.26454605
ECCENTRICITY   = .00128109
INCLINATION    = 82.5203
RA_OF_ASC_NODE = 205.5096
ARG_OF_PERICENTER = 114.4970
MEAN_ANOMALY   = 245.7606

EPHEMERIS_TYPE = 0
CLASSIFICATION_TYPE = U
NORAD_CAT_ID   = 19573
ELEMENT_SET_NO = 999
REV_AT_EPOCH   = 603
BSTAR          = .38937846E-3
MEAN_MOTION_DOT = .10206E-3
MEAN_MOTION_DDOT = 0

CCSDS_OMM_VERS = 2.0
CREATION_DATE  = 
ORIGINATOR     = 

OBJECT_NAME    = SL-14 R/B
OBJECT_ID      = 1988-093B
CENTER_NAME    = EARTH
REF_FRAME      = TEME
TIME_SYSTEM    = UTC
MEAN_ELEMENT_THEORY = SGP/SGP4

EPOCH          = 2025-12-11T21:50:03.637248
MEAN_MOTION    = 14.85547750
ECCENTRICITY   = .0020032
INCLINATION    = 82.5303
RA_OF_ASC_NODE = 124.4460
ARG_OF_PERICENTER = 332.2810
MEAN_ANOMALY   = 143.8051

EPHEMERIS_TYPE = 0
CLASSIFICATION_TYPE = U
NORAD_CAT_ID   = 19574
ELEMENT_SET_NO = 999
REV_AT_EPOCH   = 98800
BSTAR          = .96678E-4
MEAN_MOTION_DOT = .862E-5
MEAN_MOTION_DDOT = 0

CCSDS_OMM_VERS = 2.0
CREATION_DATE  = 
ORIGINATOR     = 

OBJECT_NAME    = SL-16 R/B
OBJECT_ID      = 1988-102B
CENTER_NAME    = EARTH
REF_FRAME      = TEME
TIME_SYSTEM    = UTC
MEAN_ELEMENT_THEORY = SGP/SGP4

EPOCH          = 2025-12-12T05:55:00.992928
MEAN_MOTION    = 14.16136273
ECCENTRICITY   = .00129966
INCLINATION    = 70.9997
RA_OF_ASC_NODE = 335.4808
ARG_OF_PERICENTER = 152.7736
MEAN_ANOMALY   = 207.4072

EPHEMERIS_TYPE = 0
CLASSIFICATION_TYPE = U
NORAD_CAT_ID   = 19650
ELEMENT_SET_NO = 999
REV_AT_EPOCH   = 91451
BSTAR          = .20039795E-4
MEAN_MOTION_DOT = -.8E-7
MEAN_MOTION_DDOT = 0

CCSDS_OMM_VERS = 2.0
CREATION_DATE  = 
ORIGINATOR     = 

OBJECT_NAME    = INTERCOSMOS 24
OBJECT_ID      = 1989-080A
CENTER_NAME    = EARTH
REF_FRAME      = TEME
TIME_SYSTEM    = UTC
MEAN_ELEMENT_THEORY = SGP/SGP4

EPOCH          = 2025-12-11T22:47:42.692352
MEAN_MOTION    = 12.59437986
ECCENTRICITY   = .1188841
INCLINATION    = 82.6043
RA_OF_ASC_NODE = 161.4665
ARG_OF_PERICENTER = 136.3518
MEAN_ANOMALY   = 233.8091

EPHEMERIS_TYPE = 0
CLASSIFICATION_TYPE = U
NORAD_CAT_ID   = 20261
ELEMENT_SET_NO = 999
REV_AT_EPOCH   = 65575
BSTAR          = .42878E-3
MEAN_MOTION_DOT = .1479E-4
MEAN_MOTION_DDOT = 0

CCSDS_OMM_VERS = 2.0
CREATION_DATE  = 
ORIGINATOR     = 

OBJECT_NAME    = SL-14 R/B
OBJECT_ID      = 1989-080C
CENTER_NAME    = EARTH
REF_FRAME      = TEME
TIME_SYSTEM    = UTC
MEAN_ELEMENT_THEORY = SGP/SGP4

EPOCH          = 2025-12-12T04:25:22.769184
MEAN_MOTION    = 12.50413228
ECCENTRICITY   = .12306605
INCLINATION    = 82.5929
RA_OF_ASC_NODE = 229.3774
ARG_OF_PERICENTER = 24.8568
MEAN_ANOMALY   = 340.6974

EPHEMERIS_TYPE = 0
CLASSIFICATION_TYPE = U
NORAD_CAT_ID   = 20262
ELEMENT_SET_NO = 999
REV_AT_EPOCH   = 64921
BSTAR          = .18091766E-3
MEAN_MOTION_DOT = .618E-5
MEAN_MOTION_DDOT = 0

CCSDS_OMM_VERS = 2.0
CREATION_DATE  = 
ORIGINATOR     = 

OBJECT_NAME    = DELTA 1 R/B
OBJECT_ID      = 1989-089B
CENTER_NAME    = EARTH
REF_FRAME      = TEME
TIME_SYSTEM    = UTC
MEAN_ELEMENT_THEORY = SGP/SGP4

EPOCH          = 2025-12-12T03:45:55.772064
MEAN_MOTION    = 14.50571586
ECCENTRICITY   = .00701729
INCLINATION    = 97.0752
RA_OF_ASC_NODE = 202.4869
ARG_OF_PERICENTER = 40.1184
MEAN_ANOMALY   = 320.5165

EPHEMERIS_TYPE = 0
CLASSIFICATION_TYPE = U
NORAD_CAT_ID   = 20323
ELEMENT_SET_NO = 999
REV_AT_EPOCH   = 88304
BSTAR          = .1465268E-3
MEAN_MOTION_DOT = .557E-5
MEAN_MOTION_DDOT = 0

CCSDS_OMM_VERS = 2.0
CREATION_DATE  = 
ORIGINATOR     = 

OBJECT_NAME    = ARIANE 40 R/B
OBJECT_ID      = 1990-005H
CENTER_NAME    = EARTH
REF_FRAME      = TEME
TIME_SYSTEM    = UTC
MEAN_ELEMENT_THEORY = SGP/SGP4

EPOCH          = 2025-12-12T04:23:54.502080
MEAN_MOTION    = 14.39798179
ECCENTRICITY   = .00112502
INCLINATION    = 98.3243
RA_OF_ASC_NODE = 44.3768
ARG_OF_PERICENTER = 107.2835
MEAN_ANOMALY   = 252.9585

EPHEMERIS_TYPE = 0
CLASSIFICATION_TYPE = U
NORAD_CAT_ID   = 20443
ELEMENT_SET_NO = 999
REV_AT_EPOCH   = 88021
BSTAR          = .17553846E-3
MEAN_MOTION_DOT = .509E-5
MEAN_MOTION_DDOT = 0

